satname,norad_id,inclination_deg,eccentricity,mean_motion_rev_per_day,perigee_km,apogee_km,l1,l2
STARLINK-1142,45093,53.0226,0.0009117,15.87184817,304.08214292907815,316.27761993067725,1 45093U 20006BB  25344.91670139  .00648184  00000+0  22570-2 0  9991,2 45093  53.0226 199.3983 0009117 200.0420 255.3613 15.87184817  6011
STARLINK-1152,45096,53.0432,0.0004745,15.27864235,478.94289712706086,485.4533551617724,1 45096U 20006BE  25344.01988897  .00045290  00000+0  16451-2 0  9998,2 45096  53.0432 265.9175 0004745  32.2500 327.8787 15.27864235323834
STARLINK-1184,45098,53.055,0.0001602,15.06409754,546.0722274445252,548.291099544309,1 45098U 20006BG  25344.54391534  .00007969  00000+0  55311-3 0  9994,2 45098  53.0550 286.8056 0001602  64.6244 295.4911 15.06409754323589
STARLINK-1193,45100,53.0574,0.000166,15.06398465,546.0666538546175,548.3658711377675,1 45100U 20006BJ  25344.80562095  .00001466  00000+0  11729-3 0  9990,2 45100  53.0574 285.6360 0001660 100.4546 259.6630 15.06398465323623
STARLINK-1143,45179,53.0522,0.0002885,15.4575744,427.1894901897713,431.1172967468019,1 45179U 20012B   25344.47502245  .00098753  00000+0  19917-2 0  9998,2 45179  53.0522  40.3998 0002885 177.9169 182.1850 15.45757440322050
STARLINK-1202,45183,53.0542,0.0002052,15.06401917,545.7846022971335,548.6267629340791,1 45183U 20012F   25344.66923760 -.00000735  00000+0 -30451-4 0  9996,2 45183  53.0542  86.2449 0002052  61.8136 298.3060 15.06401917321423
STARLINK-1216,45185,53.0555,0.0001414,15.06398618,546.2365486874605,548.195038457483,1 45185U 20012H   25344.66186735  .00001562  00000+0  12371-3 0  9998,2 45185  53.0555  86.2797 0001414 102.5428 257.5719 15.06398618321367
STARLINK-1225,45187,53.054,0.0001631,15.06408847,546.0549233627817,548.3139632175817,1 45187U 20012K   25344.68029903  .00002676  00000+0  19845-3 0  9995,2 45187  53.0540  86.1974 0001631  76.3875 283.7295 15.06408847321416
STARLINK-1230,45189,53.056,0.0001105,15.06394502,546.4631556900231,547.9936614453163,1 45189U 20012M   25344.48494767  .00001181  00000+0  98187-4 0  9996,2 45189  53.0560  87.0782 0001105  84.1424 275.9691 15.06394502318613
STARLINK-1234,45190,53.0516,0.0006382,15.42624145,434.01771653312335,442.71830352792585,1 45190U 20012N   25344.41180950  .00097532  00000+0  21867-2 0  9991,2 45190  53.0516  35.1686 0006382 348.9893  11.0971 15.42624145322014
STARLINK-1269,45197,53.0519,0.0001643,15.06403921,546.0617078704399,548.3373734577017,1 45197U 20012V   25344.56234365  .00002751  00000+0  20349-3 0  9998,2 45197  53.0519  86.7255 0001643  97.3528 262.7648 15.06403921321374
STARLINK-1154,45198,53.054,0.0001042,15.06394802,546.5058661256735,547.9491120852035,1 45198U 20012W   25344.48678779  .00000596  00000+0  58903-4 0  9994,2 45198  53.0540  67.0663 0001042  59.9066 300.2026 15.06394802321610
STARLINK-1199,45201,53.0579,0.0001817,15.06396879,545.9627857992691,548.479460941302,1 45201U 20012Z   25344.49784610 -.00000041  00000+0  16186-4 0  9995,2 45201  53.0579  67.0172 0001817  98.7117 261.4078 15.06396879321677
STARLINK-1209,45206,53.0522,0.0006695,15.35960602,453.49189026546355,462.64556973793697,1 45206U 20012AE  25344.63426800  .00078330  00000+0  21921-2 0  9996,2 45206  53.0522  36.5237 0006695 352.4225   7.6674 15.35960602321161
STARLINK-1210,45207,53.0214,0.0003155,15.67292602,364.52532683035406,368.78128951481085,1 45207U 20012AF  25344.91670139  .00205844  00000+0  18346-2 0  9993,2 45207  53.0214 348.8903 0003155 148.6792  44.0190 15.67292602  5936
STARLINK-1231,45212,53.052,0.0003438,15.1502743,518.5233988600721,523.2671734600353,1 45212U 20012AL  25344.52029674  .00030829  00000+0  16395-2 0  9999,2 45212  53.0520  63.2232 0003438 154.7407 205.3755 15.15027430321680
STARLINK-1271,45217,53.0559,0.0001548,15.06402692,546.1312646787046,548.2753500378622,1 45217U 20012AR  25344.48310099  .00001365  00000+0  11052-3 0  9992,2 45217  53.0559  67.0814 0001548 126.7955 233.3176 15.06402692321676
STARLINK-1191,45222,53.0548,0.0001111,15.06390921,546.4699745891658,548.0087932216693,1 45222U 20012AW  25344.55864780 -.00015091  00000+0 -99660-3 0  9991,2 45222  53.0548  46.7480 0001111  96.8892 263.2224 15.06390921321965
STARLINK-1212,45223,53.0552,0.000171,15.06408761,546.0004768533536,548.3689368771011,1 45223U 20012AX  25344.44447771  .00002554  00000+0  19025-3 0  9992,2 45223  53.0552  47.9135 0001710  88.7185 271.4000 15.06408761321944
STARLINK-1215,45225,53.0554,0.0001421,15.06400513,546.2258938609466,548.1940774742734,1 45225U 20012AZ  25344.59921219 -.00001891  00000+0 -10811-3 0  9993,2 45225  53.0554  46.5592 0001421  83.9494 276.1657 15.06400513321924
STARLINK-1221,45227,53.069,0.0005454,15.38466179,446.9199082878231,454.3687429578122,1 45227U 20012BB  25344.68529134  .00022440  00000+0  59091-3 0  9999,2 45227  53.0690 330.2370 0005454  83.7182 276.4442 15.38466179322994
STARLINK-1222,45228,53.0552,0.0001529,15.15915207,517.1470177206811,519.2559180241569,1 45228U 20012BC  25344.91670139  .01997120  00000+0  92705-1 0  9992,2 45228  53.0552  44.6307 0001529  62.7167 301.6128 15.15915207  5825
STARLINK-1226,45229,53.0543,0.0001616,15.06405509,546.075540099705,548.313807296644,1 45229U 20012BD  25344.59553095  .00007537  00000+0  52424-3 0  9997,2 45229  53.0543  46.5760 0001616  90.6301 269.4873 15.06405509321869
STARLINK-1227,45230,53.0574,0.0001266,15.0639276,546.356995647755,548.1104995210426,1 45230U 20012BE  25344.59183985  .00000108  00000+0  26177-4 0  9990,2 45230  53.0574  46.5951 0001266  71.1618 288.9509 15.06392760321982
STARLINK-1246,45235,53.054,8.76e-05,15.06413008,546.565033537363,547.778347619952,1 45235U 20012BK  25344.67292488  .00007223  00000+0  50312-3 0  9995,2 45235  53.0540  86.2296 0000876  85.1898 274.9191 15.06413008321446
STARLINK-1270,45237,53.0563,0.000147,15.06392512,546.2164780632438,548.2525372865002,1 45237U 20012BM  25344.34487955  .00002726  00000+0  20187-3 0  9996,2 45237  53.0563  47.7036 0001470  98.8011 261.3145 15.06392512321935
STARLINK-1279,45360,53.0506,0.0008844,15.40381662,438.9476711109128,451.0164040645968,1 45360U 20019A   25344.82275269  .00100039  00000+0  24140-2 0  9994,2 45360  53.0506 164.1760 0008844 145.7215 214.4362 15.40381662316900
STARLINK-1301,45361,53.0501,0.0008911,15.43336634,430.197615030781,442.34225106686154,1 45361U 20019B   25344.78145442  .00121974  00000+0  26577-2 0  9996,2 45361  53.0501 173.3332 0008911 138.5326 221.6356 15.43336634316782
STARLINK-1306,45362,53.0385,0.0001863,15.8697548,309.5218934494469,312.01417946603124,1 45362U 20019C   25344.91670139  .00432116  00000+0  15615-2 0  9992,2 45362  53.0385 151.8058 0001863  72.0080 133.2737 15.86975480  5867
STARLINK-1262,45366,53.0541,0.0001277,15.06395343,546.3414621757984,548.1101998428367,1 45366U 20019G   25344.65450794  .00002019  00000+0  15444-3 0  9996,2 45366  53.0541 206.3088 0001277  91.2706 268.8429 15.06395343316315
STARLINK-1273,45367,53.055,0.0001475,15.06403862,546.1782343233763,548.2212086562149,1 45367U 20019H   25344.34487950  .00000354  00000+0  42677-4 0  9996,2 45367  53.0550 207.6985 0001475  86.0135 274.1023 15.06403862316264
STARLINK-1276,45368,53.0543,0.0001245,15.06398556,546.3537771473821,548.0781900402972,1 45368U 20019J   25344.64713416  .00002292  00000+0  17272-3 0  9994,2 45368  53.0543 206.3467 0001245  94.7985 265.3146 15.06398556316319
STARLINK-1277,45369,53.0544,0.0001557,15.06395046,546.1484621418658,548.3050204108995,1 45369U 20019K   25344.63983993  .00002010  00000+0  15379-3 0  9997,2 45369  53.0544 207.0052 0001557  85.2911 274.8255 15.06395046316305
STARLINK-1281,45370,53.0549,0.0001486,15.06405887,546.1644110753632,548.2226193044771,1 45370U 20019L   25344.03894713  .00001004  00000+0  86270-4 0  9995,2 45370  53.0549 209.0784 0001486  96.0010 264.1148 15.06405887316226
STARLINK-1300,45374,53.0534,0.0001701,15.06405791,546.015810643511,548.3718081848738,1 45374U 20019Q   25344.65819050  .00003321  00000+0  24170-3 0  9992,2 45374  53.0534 206.2951 0001701 100.5819 259.5362 15.06405791316317
STARLINK-1302,45375,53.0527,9.77e-05,15.06410086,546.5040424393901,547.8572495074131,1 45375U 20019R   25344.07582389  .00009590  00000+0  66164-3 0  9994,2 45375  53.0527 208.9104 0000977 101.1439 258.9660 15.06410086316225
STARLINK-1304,45376,53.0528,0.0001341,15.06402309,546.2757929022464,548.1331694875025,1 45376U 20019S   25344.62502669  .00006914  00000+0  48255-3 0  9997,2 45376  53.0528 206.4427 0001341 100.7212 259.3927 15.06402309316307
STARLINK-1305,45377,53.0501,0.0008557,15.36859917,449.55414348568684,461.2490614499502,1 45377U 20019T   25344.62438942  .00100755  00000+0  27272-2 0  9993,2 45377  53.0501 196.3298 0008557 127.3655 232.8128 15.36859917316453
STARLINK-1319,45379,53.0525,0.0007392,15.41725092,435.97705151014,446.05848992316714,1 45379U 20019V   25344.32845337  .00104717  00000+0  24159-2 0  9995,2 45379  53.0525 198.8079 0007392 132.3453 227.8179 15.41725092316398
STARLINK-1266,45383,53.0544,0.0001535,15.06405714,546.1310070911304,548.2570837220701,1 45383U 20019Z   25344.57892911  .00000784  00000+0  71483-4 0  9990,2 45383  53.0544 186.6547 0001535  97.3353 262.7811 15.06405714316579
STARLINK-1267,45384,53.0534,0.0001289,15.06404037,546.3065093080777,548.0918609766077,1 45384U 20019AA  25344.82964802  .00002355  00000+0  17693-3 0  9996,2 45384  53.0534 186.1829 0001289 100.1772 259.9363 15.06404037316602
STARLINK-1272,45386,53.0515,0.0009175,15.39967622,439.9436376057056,452.46630512315915,1 45386U 20019AC  25344.81259285  .00103046  00000+0  25193-2 0  9991,2 45386  53.0515 174.7976 0009175 144.4431 215.7185 15.39967622316763
STARLINK-1274,45387,53.033,0.0004944,15.33770403,461.19213836681956,467.9582121657222,1 45387U 20019AD  25344.79088307  .00092049  00000+0  27556-2 0  9999,2 45387  53.0330 163.7933 0004944 110.1065 250.0468 15.33770403316918
